{"type": "FeatureCollection", "features": [ {"type": "Feature", "properties": {"norad_id": 66596, "name": "STARLINK-35811", "group": "last-30-days", "lat": -41.88638814208795, "lon": 125.36986383545505, "alt_km": 360.42761818423696, "timestamp": "2025-12-06T05:40:08.012361+00:00", "meta": {"OBJECT_NAME": "STARLINK-35811", "OBJECT_ID": "2025-270J", "EPOCH": "2025-12-05T06:00:02.000160", "MEAN_MOTION": 15.74025221, "ECCENTRICITY": 0.00012125, "INCLINATION": 42.9988, "RA_OF_ASC_NODE": 237.0755, "ARG_OF_PERICENTER": 270.668, "MEAN_ANOMALY": 159.7, "EPHEMERIS_TYPE": 0, "CLASSIFICATION_TYPE": "U", "NORAD_CAT_ID": 66596, "ELEMENT_SET_NO": 999, "REV_AT_EPOCH": 330, "BSTAR": -0.014480252, "MEAN_MOTION_DOT": -0.01856379, "MEAN_MOTION_DDOT": 0}, "tle": {"line1": "1 66596U 25270J   25339.25002315 -.01856379  00000+0 -14480-1 0  9996", "line2": "2 66596  42.9988 237.0755 0001212 270.6680 159.7000 15.74025221  3305"}}, "geometry": {"type": "Point", "coordinates": [125.36986383545505, -41.88638814208795]}}, {"type": "Feature", "properties": {"norad_id": 66597, "name": "STARLINK-35820", "group": "last-30-days", "lat": -42.201705750714886, "lon": 127.81273112553184, "alt_km": 360.48566434499025, "timestamp": "2025-12-06T05:40:08.012373+00:00", "meta": {"OBJECT_NAME": "STARLINK-35820", "OBJECT_ID": "2025-270K", "EPOCH": "2025-12-05T06:00:02.000160", "MEAN_MOTION": 15.74069018, "ECCENTRICITY": 0.00014643, "INCLINATION": 42.9987, "RA_OF_ASC_NODE": 237.0707, "ARG_OF_PERICENTER": 277.5139, "MEAN_ANOMALY": 154.742, "EPHEMERIS_TYPE": 0, "CLASSIFICATION_TYPE": "U", "NORAD_CAT_ID": 66597, "ELEMENT_SET_NO": 999, "REV_AT_EPOCH": 330, "BSTAR": -0.014867396, "MEAN_MOTION_DOT": -0.01902692, "MEAN_MOTION_DDOT": 0}, "tle": {"line1": "1 66597U 25270K   25339.25002315 -.01902692  00000+0 -14867-1 0  9996", "line2": "2 66597  42.9987 237.0707 0001464 277.5139 154.7420 15.74069018  3309"}}, "geometry": {"type": "Point", "coordinates": [127.81273112553184, -42.201705750714886]}}, {"type": "Feature", "properties": {"norad_id": 66598, "name": "STARLINK-35981", "group": "last-30-days", "lat": -42.48258523662515, "lon": 130.4676328720204, "alt_km": 360.31606768042, "timestamp": "2025-12-06T05:40:08.012383+00:00", "meta": {"OBJECT_NAME": "STARLINK-35981", "OBJECT_ID": "2025-270L", "EPOCH": "2025-12-05T06:00:02.000160", "MEAN_MOTION": 15.74014795, "ECCENTRICITY": 0.0001604, "INCLINATION": 42.9987, "RA_OF_ASC_NODE": 237.0653, "ARG_OF_PERICENTER": 283.939, "MEAN_ANOMALY": 150.2719, "EPHEMERIS_TYPE": 0, "CLASSIFICATION_TYPE": "U", "NORAD_CAT_ID": 66598, "ELEMENT_SET_NO": 999, "REV_AT_EPOCH": 303, "BSTAR": -0.014398926, "MEAN_MOTION_DOT": -0.01846914, "MEAN_MOTION_DDOT": 0}, "tle": {"line1": "1 66598U 25270L   25339.25002315 -.01846914  00000+0 -14399-1 0  9991", "line2": "2 66598  42.9987 237.0653 0001604 283.9390 150.2719 15.74014795  3030"}}, "geometry": {"type": "Point", "coordinates": [130.4676328720204, -42.48258523662515]}}, {"type": "Feature", "properties": {"norad_id": 66599, "name": "STARLINK-35930", "group": "last-30-days", "lat": -42.691000670305435, "lon": 132.99703482711274, "alt_km": 360.2717992541466, "timestamp": "2025-12-06T05:40:08.012394+00:00", "meta": {"OBJECT_NAME": "STARLINK-35930", "OBJECT_ID": "2025-270M", "EPOCH": "2025-12-05T06:00:02.000160", "MEAN_MOTION": 15.7404661, "ECCENTRICITY": 0.00015464, "INCLINATION": 42.9987, "RA_OF_ASC_NODE": 237.061, "ARG_OF_PERICENTER": 269.9549, "MEAN_ANOMALY": 166.1515, "EPHEMERIS_TYPE": 0, "CLASSIFICATION_TYPE": "U", "NORAD_CAT_ID": 66599, "ELEMENT_SET_NO": 999, "REV_AT_EPOCH": 319, "BSTAR": -0.014681403, "MEAN_MOTION_DOT": -0.01880549, "MEAN_MOTION_DDOT": 0}, "tle": {"line1": "1 66599U 25270M   25339.25002315 -.01880549  00000+0 -14681-1 0  9998", "line2": "2 66599  42.9987 237.0610 0001546 269.9549 166.1515 15.74046610  3197"}}, "geometry": {"type": "Point", "coordinates": [132.99703482711274, -42.691000670305435]}}, {"type": "Feature", "properties": {"norad_id": 66600, "name": "STARLINK-35980", "group": "last-30-days", "lat": -42.84526000829824, "lon": 135.5824889994445, "alt_km": 360.52765408357027, "timestamp": "2025-12-06T05:40:08.012417+00:00", "meta": {"OBJECT_NAME": "STARLINK-35980", "OBJECT_ID": "2025-270N", "EPOCH": "2025-12-05T06:00:02.000160", "MEAN_MOTION": 15.74054996, "ECCENTRICITY": 0.00012681, "INCLINATION": 42.9987, "RA_OF_ASC_NODE": 237.0563, "ARG_OF_PERICENTER": 277.1699, "MEAN_ANOMALY": 160.8453, "EPHEMERIS_TYPE": 0, "CLASSIFICATION_TYPE": "U", "NORAD_CAT_ID": 66600, "ELEMENT_SET_NO": 999, "REV_AT_EPOCH": 309, "BSTAR": -0.014730516, "MEAN_MOTION_DOT": -0.01886351, "MEAN_MOTION_DDOT": 0}, "tle": {"line1": "1 66600U 25270N   25339.25002315 -.01886351  00000+0 -14731-1 0  9994", "line2": "2 66600  42.9987 237.0563 0001268 277.1699 160.8453 15.74054996  3092"}}, "geometry": {"type": "Point", "coordinates": [135.5824889994445, -42.84526000829824]}}, {"type": "Feature", "properties": {"norad_id": 66601, "name": "STARLINK-35978", "group": "last-30-days", "lat": -42.941036086269044, "lon": 138.17648155014186, "alt_km": 360.3082867008643, "timestamp": "2025-12-06T05:40:08.012430+00:00", "meta": {"OBJECT_NAME": "STARLINK-35978", "OBJECT_ID": "2025-270P", "EPOCH": "2025-12-05T06:00:02.000160", "MEAN_MOTION": 15.7406469, "ECCENTRICITY": 0.00015565, "INCLINATION": 42.9989, "RA_OF_ASC_NODE": 237.0515, "ARG_OF_PERICENTER": 272.5118, "MEAN_ANOMALY": 167.4122, "EPHEMERIS_TYPE": 0, "CLASSIFICATION_TYPE": "U", "NORAD_CAT_ID": 66601, "ELEMENT_SET_NO": 999, "REV_AT_EPOCH": 303, "BSTAR": -0.014803941, "MEAN_MOTION_DOT": -0.0189544, "MEAN_MOTION_DDOT": 0}, "tle": {"line1": "1 66601U 25270P   25339.25002315 -.01895440  00000+0 -14804-1 0  9995", "line2": "2 66601  42.9989 237.0515 0001556 272.5118 167.4122 15.74064690  3039"}}, "geometry": {"type": "Point", "coordinates": [138.17648155014186, -42.941036086269044]}}, {"type": "Feature", "properties": {"norad_id": 66602, "name": "STARLINK-36050", "group": "last-30-days", "lat": -42.97747199590873, "lon": 140.77142197058163, "alt_km": 360.1925371342404, "timestamp": "2025-12-06T05:40:08.012441+00:00", "meta": {"OBJECT_NAME": "STARLINK-36050", "OBJECT_ID": "2025-270Q", "EPOCH": "2025-12-05T06:00:02.000160", "MEAN_MOTION": 15.74055648, "ECCENTRICITY": 0.00017702, "INCLINATION": 42.9987, "RA_OF_ASC_NODE": 237.0465, "ARG_OF_PERICENTER": 277.608, "MEAN_ANOMALY": 164.245, "EPHEMERIS_TYPE": 0, "CLASSIFICATION_TYPE": "U", "NORAD_CAT_ID": 66602, "ELEMENT_SET_NO": 999, "REV_AT_EPOCH": 309, "BSTAR": -0.014781575, "MEAN_MOTION_DOT": -0.01892509, "MEAN_MOTION_DDOT": 0}, "tle": {"line1": "1 66602U 25270Q   25339.25002315 -.01892509  00000+0 -14782-1 0  9994", "line2": "2 66602  42.9987 237.0465 0001770 277.6080 164.2450 15.74055648  3092"}}, "geometry": {"type": "Point", "coordinates": [140.77142197058163, -42.97747199590873]}}, {"type": "Feature", "properties": {"norad_id": 66603, "name": "STARLINK-36048", "group": "last-30-days", "lat": -42.954632487227414, "lon": 143.4061947880825, "alt_km": 360.33645400686873, "timestamp": "2025-12-06T05:40:08.012453+00:00", "meta": {"OBJECT_NAME": "STARLINK-36048", "OBJECT_ID": "2025-270R", "EPOCH": "2025-12-05T06:00:02.000160", "MEAN_MOTION": 15.74053246, "ECCENTRICITY": 0.00015444, "INCLINATION": 42.9989, "RA_OF_ASC_NODE": 237.0408, "ARG_OF_PERICENTER": 281.3997, "MEAN_ANOMALY": 162.3677, "EPHEMERIS_TYPE": 0, "CLASSIFICATION_TYPE": "U", "NORAD_CAT_ID": 66603, "ELEMENT_SET_NO": 999, "REV_AT_EPOCH": 309, "BSTAR": -0.014718439, "MEAN_MOTION_DOT": -0.0188513, "MEAN_MOTION_DDOT": 0}, "tle": {"line1": "1 66603U 25270R   25339.25002315 -.01885130  00000+0 -14718-1 0  9996", "line2": "2 66603  42.9989 237.0408 0001544 281.3997 162.3677 15.74053246  3092"}}, "geometry": {"type": "Point", "coordinates": [143.4061947880825, -42.954632487227414]}}, {"type": "Feature", "properties": {"norad_id": 66604, "name": "STARLINK-35977", "group": "last-30-days", "lat": -42.87270229355237, "lon": 145.99540105309435, "alt_km": 360.3745260286114, "timestamp": "2025-12-06T05:40:08.012463+00:00", "meta": {"OBJECT_NAME": "STARLINK-35977", "OBJECT_ID": "2025-270S", "EPOCH": "2025-12-05T06:00:02.000160", "MEAN_MOTION": 15.74056683, "ECCENTRICITY": 0.00014601, "INCLINATION": 42.9988, "RA_OF_ASC_NODE": 237.0361, "ARG_OF_PERICENTER": 275.7813, "MEAN_ANOMALY": 169.9051, "EPHEMERIS_TYPE": 0, "CLASSIFICATION_TYPE": "U", "NORAD_CAT_ID": 66604, "ELEMENT_SET_NO": 999, "REV_AT_EPOCH": 319, "BSTAR": -0.014784676, "MEAN_MOTION_DOT": -0.01892644, "MEAN_MOTION_DDOT": 0}, "tle": {"line1": "1 66604U 25270S   25339.25002315 -.01892644  00000+0 -14785-1 0  9999", "line2": "2 66604  42.9988 237.0361 0001460 275.7813 169.9051 15.74056683  3199"}}, "geometry": {"type": "Point", "coordinates": [145.99540105309435, -42.87270229355237]}}, {"type": "Feature", "properties": {"norad_id": 66605, "name": "STARLINK-36052", "group": "last-30-days", "lat": -42.73164920556025, "lon": 148.59081043684003, "alt_km": 360.35552015456597, "timestamp": "2025-12-06T05:40:08.012473+00:00", "meta": {"OBJECT_NAME": "STARLINK-36052", "OBJECT_ID": "2025-270T", "EPOCH": "2025-12-05T06:00:02.000160", "MEAN_MOTION": 15.74056486, "ECCENTRICITY": 0.00015227, "INCLINATION": 42.9989, "RA_OF_ASC_NODE": 237.0323, "ARG_OF_PERICENTER": 282.5743, "MEAN_ANOMALY": 165.0283, "EPHEMERIS_TYPE": 0, "CLASSIFICATION_TYPE": "U", "NORAD_CAT_ID": 66605, "ELEMENT_SET_NO": 999, "REV_AT_EPOCH": 319, "BSTAR": -0.014776557, "MEAN_MOTION_DOT": -0.01891786, "MEAN_MOTION_DDOT": 0}, "tle": {"line1": "1 66605U 25270T   25339.25002315 -.01891786  00000+0 -14777-1 0  9997", "line2": "2 66605  42.9989 237.0323 0001522 282.5743 165.0283 15.74056486  3191"}}, "geometry": {"type": "Point", "coordinates": [148.59081043684003, -42.73164920556025]}}]}